{
    "links": {
        "self": "http://www.neowsapp.com/rest/v1/neo/3780790?api_key=iIulBulltgU6a56xZRHN4H3l9WmuAYTsLGpBGhQ2"
    },
    "id": "3780790",
    "neo_reference_id": "3780790",
    "name": "(2017 QE3)",
    "designation": "2017 QE3",
    "nasa_jpl_url": "http://ssd.jpl.nasa.gov/sbdb.cgi?sstr=3780790",
    "absolute_magnitude_h": 26.2,
    "estimated_diameter": {
        "kilometers": {
            "estimated_diameter_min": 0.0152951935,
            "estimated_diameter_max": 0.0342010925
        },
        "meters": {
            "estimated_diameter_min": 15.2951935344,
            "estimated_diameter_max": 34.201092472
        },
        "miles": {
            "estimated_diameter_min": 0.0095039897,
            "estimated_diameter_max": 0.021251567
        },
        "feet": {
            "estimated_diameter_min": 50.1810827555,
            "estimated_diameter_max": 112.2083122258
        }
    },
    "is_potentially_hazardous_asteroid": false,
    "close_approach_data": [
        {
            "close_approach_date": "2017-08-01",
            "close_approach_date_full": "2017-Aug-01 16:12",
            "epoch_date_close_approach": 1501603920000,
            "relative_velocity": {
                "kilometers_per_second": "7.6953422097",
                "kilometers_per_hour": "27703.2319548906",
                "miles_per_hour": "17213.7109888597"
            },
            "miss_distance": {
                "astronomical": "0.0340854248",
                "lunar": "13.2592302472",
                "kilometers": "5099106.948125176",
                "miles": "3168438.1351363888"
            },
            "orbiting_body": "Earth"
        }
    ],
    "orbital_data": {
        "orbit_id": "1",
        "orbit_determination_date": "2017-08-21 18:42:05",
        "first_observation_date": "2017-08-15",
        "last_observation_date": "2017-08-19",
        "data_arc_in_days": 4,
        "observations_used": 10,
        "orbit_uncertainty": "8",
        "minimum_orbit_intersection": ".0306622",
        "jupiter_tisserand_invariant": "4.657",
        "epoch_osculation": "2457983.5",
        "eccentricity": ".3164978960518511",
        "semi_major_axis": "1.416861654074413",
        "inclination": "5.849476162058398",
        "ascending_node_longitude": "322.1444046235454",
        "orbital_period": "616.0126022309098",
        "perihelion_distance": ".9684279215633158",
        "perihelion_argument": "303.8295651799729",
        "aphelion_distance": "1.86529538658551",
        "perihelion_time": "2457929.700655690091",
        "mean_anomaly": "31.44053203039394",
        "mean_motion": ".5844036285885195",
        "equinox": "J2000",
        "orbit_class": {
            "orbit_class_type": "APO",
            "orbit_class_description": "Near-Earth asteroid orbits which cross the Earth’s orbit similar to that of 1862 Apollo",
            "orbit_class_range": "a (semi-major axis) > 1.0 AU; q (perihelion) < 1.017 AU"
        }
    },
    "is_sentry_object": false
}